OBJECT_NAME,OBJECT_ID,EPOCH,MEAN_MOTION,ECCENTRICITY,INCLINATION,RA_OF_ASC_NODE,ARG_OF_PERICENTER,MEAN_ANOMALY,EPHEMERIS_TYPE,CLASSIFICATION_TYPE,NORAD_CAT_ID,ELEMENT_SET_NO,REV_AT_EPOCH,BSTAR,MEAN_MOTION_DOT,MEAN_MOTION_DDOT
HAWK-5A,2022-057AB,2026-07-12T13:53:10.517280,15.52262513,.00035857,97.6614,354.0870,348.9071,11.2101,0,U,52757,999,23028,.19442095E-3,.11706E-3,0
HAWK-6B,2023-011A,2026-07-12T11:50:52.794240,15.23138816,.00037942,40.4967,204.4428,226.2355,133.8140,0,U,55324,999,19170,.11181159E-3,.25E-4,0
HAWK-6C,2023-011C,2026-07-12T10:15:33.617088,15.23140487,.00042909,40.4959,201.6644,217.2820,142.7692,0,U,55326,999,19170,.1165287E-3,.2614E-4,0
HAWK-6A,2023-011D,2026-07-12T10:15:36.715392,15.23139285,.00038014,40.4967,203.2914,214.8254,145.2307,0,U,55327,999,19170,.11315945E-3,.2533E-4,0
HAWK-7A,2023-054P,2026-07-12T14:14:31.824960,15.27615657,.00017078,97.2673,80.2853,346.9463,13.1732,0,U,56191,999,18090,.12031E-3,.3176E-4,0
HAWK-7B,2023-054R,2026-07-12T14:14:25.646496,15.27612799,.00016085,97.2698,78.5581,21.7049,338.4259,0,U,56193,999,18090,.11504784E-3,.3033E-4,0
HAWK-7C,2023-054Y,2026-07-12T14:14:15.367488,15.27617043,.0001157,97.2676,79.3188,6.3465,353.7789,0,U,56200,999,18090,.12145321E-3,.3207E-4,0
