HAWK-5A                 
1 52757U 22057AB  26193.57859395  .00011706  00000+0  19442-3 0  9991
2 52757  97.6614 354.0870 0003585 348.9071  11.2101 15.52262513230284
HAWK-6B                 
1 55324U 23011A   26193.49366660  .00002500  00000+0  11181-3 0  9998
2 55324  40.4967 204.4428 0003794 226.2355 133.8140 15.23138816191709
HAWK-6C                 
1 55326U 23011C   26193.42747242  .00002614  00000+0  11653-3 0  9992
2 55326  40.4959 201.6644 0004290 217.2820 142.7692 15.23140487191708
HAWK-6A                 
1 55327U 23011D   26193.42750828  .00002533  00000+0  11316-3 0  9993
2 55327  40.4967 203.2914 0003801 214.8254 145.2307 15.23139285191702
HAWK-7A                 
1 56191U 23054P   26193.59342390  .00003176  00000+0  12031-3 0  9998
2 56191  97.2673  80.2853 0001707 346.9463  13.1732 15.27615657180904
HAWK-7B                 
1 56193U 23054R   26193.59335239  .00003033  00000+0  11505-3 0  9991
2 56193  97.2698  78.5581 0001608  21.7049 338.4259 15.27612799180900
HAWK-7C                 
1 56200U 23054Y   26193.59323342  .00003207  00000+0  12145-3 0  9996
2 56200  97.2676  79.3188 0001157   6.3465 353.7789 15.27617043180902
